ONEWEB-0249             
1 48967U 21060A   24215.45944981  .00000019  00000+0  16986-4 0  9994
2 48967  87.9131   4.9003 0001833  95.5820 264.5520 13.16595200150939
ONEWEB-0250             
1 48968U 21060B   24214.91667824  .00366511  00000+0  85775+0 0  9992
2 48968  87.9124   4.9819 0001279  99.4610 273.9296 13.21788869  5159
ONEWEB-0252             
1 48970U 21060D   24215.49111774  .00000142  00000+0  33863-3 0  9997
2 48970  87.9129   4.8872 0001820  89.5628 270.5712 13.16595832150984
ONEWEB-0253             
1 48971U 21060E   24214.94805404  .00000073  00000+0  15686-3 0  9993
2 48971  87.9127   5.0062 0001540  88.8026 271.3281 13.16595494149555
ONEWEB-0254             
1 48972U 21060F   24215.18554418  .00000013  00000+0  14958-5 0  9994
2 48972  87.9129   4.9375 0001521  89.1644 270.9661 13.16595381150860
ONEWEB-0255             
1 48973U 21060G   24214.91956045 -.00000048  00000+0 -15791-3 0  9991
2 48973  87.9127   5.0247 0001785  96.7354 263.3980 13.16594579149623
ONEWEB-0256             
1 48974U 21060H   24215.40166623  .00000100  00000+0  22904-3 0  9993
2 48974  87.9130   4.9337 0001968  91.4195 268.7162 13.16593748150949
ONEWEB-0257             
1 48975U 21060J   24214.90214333 -.00000057  00000+0 -18260-3 0  9993
2 48975  87.9129   5.0022 0001816  89.5939 270.5400 13.16594292149542
